#aV2024  3  2  0  0  0.00000000     288 DD+AD WGS84 FIT  NGA
## 2303 518400.00000000   300.00000000 60371 0.0000000000000
+   32     1  2  3  4  5  6  7  8  9 10 11 12 13 14 15 16 17
+         18 19 20 21 22 23 24 25 26 27 28 29 30 31 32  0  0
+          0  0  0  0  0  0  0  0  0  0  0  0  0  0  0  0  0
+          0  0  0  0  0  0  0  0  0  0  0  0  0  0  0  0  0
+          0  0  0  0  0  0  0  0  0  0  0  0  0  0  0  0  0
++         2  2  2  2  2  2  2  2  2  2  2  2  2  2  2  2  2
++         2  2  2  2  2  2  2  2  2  2  2  2  2  2  2  0  0
++         0  0  0  0  0  0  0  0  0  0  0  0  0  0  0  0  0
++         0  0  0  0  0  0  0  0  0  0  0  0  0  0  0  0  0
++         0  0  0  0  0  0  0  0  0  0  0  0  0  0  0  0  0
%c cc cc ccc ccc cccc cccc cccc cccc ccccc ccccc ccccc ccccc
%c cc cc ccc ccc cccc cccc cccc cccc ccccc ccccc ccccc ccccc
%f  0.0000000  0.000000000  0.00000000000  0.000000000000000
%f  0.0000000  0.000000000  0.00000000000  0.000000000000000
%i    0    0    0    0      0      0      0      0         0
%i    0    0    0    0      0      0      0      0         0
/*      NGA, ST. LOUIS,MO.                                  
/*   EPHEMERIS COMPUTED FROM 2 DAYS OF DATA                 
/*   EPOCHA v9 SMOOTHER                                     
/*   G2296 IERS2010 SATIGS SATAPC                           
*  2024  3  2 20 30  0.00000000
P  1  12995.985750  -6810.752176  21771.525266    172.006429                    
V  1   7323.066746  27465.896111   4475.497318      0.018107                    
P  2  16441.330617   2298.085681  21279.054444   -476.623330                    
V  2   8354.693794  24431.002607  -9054.666252      0.060570                    
P  3  21210.437001  -9219.924081  12809.248748    228.212498                    
V  3 -10328.589458  13006.070442  26287.005474      0.234118                    
P  4  24924.452326    727.577328  -9323.638029    305.409067                    
V  4  10644.688466   5641.670264  28711.312355      0.092044                    
P  5 -16646.237106  -2721.089246 -20709.937648   -163.916613                    
V  5  16706.046392 -19753.591069 -10834.358227     -0.014517                    
P  6  -5447.923865 -25869.331619   1877.060675    384.510061                    
V  6   2487.789816   1731.538124  32346.478088     -0.157554                    
P  7   7761.066191 -18061.288828 -17140.441273    -75.149864                    
V  7   8243.975307  21540.371928 -18905.224924     -0.088572                    
P  8  26192.379212   5625.334231    489.220294     25.715795                    
V  8    123.242493   2751.777178 -31325.301791      0.293236                    
P  9  16139.020125  -9762.888063 -18802.722887    111.076620                    
V  9  22731.974557   6841.304848  15971.140985      0.129626                    
P 10  -6526.301739  20870.720953  15050.004753      0.928088                    
V 10 -14458.213663  12184.398004 -23801.143076     -0.007543                    
P 11 -11849.852403 -21608.139304  -9943.128927   -594.243578                    
V 11   -478.475045 -12841.016443  28360.003872     -0.121908                    
P 12 -21833.083285   7194.534815  12961.042710   -483.418794                    
V 12  11176.665182 -12953.523107  25519.406627     -0.036491                    
P 13 -21840.965449 -13971.051595  -6488.532169    630.631129                    
V 13   8135.722191   1066.538650 -30422.654786      0.034287                    
P 14  10264.192179 -21465.581476  11626.433430    340.360701                    
V 14  12708.638898  -8170.972332 -26548.417464      0.098419                    
P 15 -26502.157677  -2977.340001   -179.473760    133.528970                    
V 15     24.283562  -3489.597892 -31034.798465      0.039722                    
P 16  12681.700372   9186.299412 -21830.111605   -350.176501                    
V 16 -20399.685993  17498.592184  -4108.040567      0.086176                    
P 17   3017.838343 -14974.472957  22144.127902    715.106892                    
V 17  25798.109630   8252.930029   2256.509615     -0.013248                    
P 18  -7088.083914  19008.036988 -17029.050776   -567.516584                    
V 18  -6907.861842 -20624.499195 -20308.198995     -0.078698                    
P 19  -7808.655752 -16853.299450  18936.009070    448.473795                    
V 19  23112.659787   7558.438064  15744.298251      0.052956                    
P 20  -8083.103358 -14344.119711 -20809.458798    385.403503                    
V 20  15739.328327 -21409.930658   8461.105804     -0.014187                    
P 21  17377.831856   8636.940936  19023.964912    132.870204                    
V 21   7268.799028  21656.736704 -15918.008607     -0.014443                    
P 22   3957.543236 -19703.946700  17937.231818     22.190512                    
V 22  17548.471733 -13038.537230 -18354.964577     -0.060511                    
P 23 -15936.426108  20784.199328   3775.143422    168.323303                    
V 23  -5022.490492   1850.810837 -31771.665622      0.083833                    
P 24 -17153.643823  -4790.897518  19411.402941   -440.523226                    
V 24  -7789.575193 -24338.376319 -12214.878430     -0.057143                    
P 25 -20079.750140  16518.130833   4316.376069    490.224434                    
V 25   1694.582153  -6618.766255  31061.347293      0.010609                    
P 26   3975.601780  17681.279426 -19448.521839    184.083773                    
V 26 -17201.026610  17669.058220  13011.964025     -0.043135                    
P 27  20759.300350  13134.940579 -10914.901653     -8.723926                    
V 27 -13367.454199  -1373.278694 -27367.205162     -0.030360                    
P 28   4638.453927  25748.260959   4571.410166   -150.347210                    
V 28  -4332.199964  -4759.285891  31065.149210     -0.134260                    
P 29 -18303.879389   6742.848392 -18123.954164   -605.757351                    
V 29 -21160.721270  -8699.724424  18085.678116      0.008440                    
P 30    288.321479 -24740.302453  -9153.763675   -425.135187                    
V 30   6502.969842  10602.890601 -28317.577754      0.051446                    
P 31  10031.650812  23758.476493  -5597.534259   -227.911530                    
V 31  -1444.819071   7503.035259  30794.841735     -0.000615                    
P 32   1656.012399  15868.020451  21467.314645   -614.301801                    
V 32 -26047.067421  -6098.825499   6377.267062     -0.016054                    
EOF
